CCSDS_OMM_VERS = 2.0
CREATION_DATE  = 
ORIGINATOR     = 

OBJECT_NAME    = GSAT0233 (GALILEO 33)
OBJECT_ID      = 2025-302A
CENTER_NAME    = EARTH
REF_FRAME      = TEME
TIME_SYSTEM    = UTC
MEAN_ELEMENT_THEORY = SGP/SGP4

EPOCH          = 2025-12-18T03:30:19.486368
MEAN_MOTION    = 1.72906186
ECCENTRICITY   = .00084238
INCLINATION    = 54.2406
RA_OF_ASC_NODE = 107.2544
ARG_OF_PERICENTER = 237.6458
MEAN_ANOMALY   = 122.2317

EPHEMERIS_TYPE = 0
CLASSIFICATION_TYPE = U
NORAD_CAT_ID   = 67160
ELEMENT_SET_NO = 999
REV_AT_EPOCH   = 2
BSTAR          = 0
MEAN_MOTION_DOT = -.7E-7
MEAN_MOTION_DDOT = 0

CCSDS_OMM_VERS = 2.0
CREATION_DATE  = 
ORIGINATOR     = 

OBJECT_NAME    = ARIANE 6 R/B
OBJECT_ID      = 2025-302B
CENTER_NAME    = EARTH
REF_FRAME      = TEME
TIME_SYSTEM    = UTC
MEAN_ELEMENT_THEORY = SGP/SGP4

EPOCH          = 2026-01-14T07:36:28.132992
MEAN_MOTION    = 1.72972424
ECCENTRICITY   = .00052175
INCLINATION    = 54.2437
RA_OF_ASC_NODE = 106.4249
ARG_OF_PERICENTER = 261.0325
MEAN_ANOMALY   = 98.9126

EPHEMERIS_TYPE = 0
CLASSIFICATION_TYPE = U
NORAD_CAT_ID   = 67161
ELEMENT_SET_NO = 999
REV_AT_EPOCH   = 50
BSTAR          = 0
MEAN_MOTION_DOT = -.32E-6
MEAN_MOTION_DDOT = 0

CCSDS_OMM_VERS = 2.0
CREATION_DATE  = 
ORIGINATOR     = 

OBJECT_NAME    = GSAT0234 (GALILEO 34)
OBJECT_ID      = 2025-302C
CENTER_NAME    = EARTH
REF_FRAME      = TEME
TIME_SYSTEM    = UTC
MEAN_ELEMENT_THEORY = SGP/SGP4

EPOCH          = 2025-12-22T04:22:43.605696
MEAN_MOTION    = 1.73130437
ECCENTRICITY   = .0000312
INCLINATION    = 54.2447
RA_OF_ASC_NODE = 107.1379
ARG_OF_PERICENTER = 196.8367
MEAN_ANOMALY   = 159.4994

EPHEMERIS_TYPE = 0
CLASSIFICATION_TYPE = U
NORAD_CAT_ID   = 67162
ELEMENT_SET_NO = 999
REV_AT_EPOCH   = 12
BSTAR          = 0
MEAN_MOTION_DOT = .6E-7
MEAN_MOTION_DDOT = 0

CCSDS_OMM_VERS = 2.0
CREATION_DATE  = 
ORIGINATOR     = 

OBJECT_NAME    = STARLINK-35755
OBJECT_ID      = 2025-303A
CENTER_NAME    = EARTH
REF_FRAME      = TEME
TIME_SYSTEM    = UTC
MEAN_ELEMENT_THEORY = SGP/SGP4

EPOCH          = 2026-01-15T22:00:01.999584
MEAN_MOTION    = 15.40701183
ECCENTRICITY   = .00020606
INCLINATION    = 42.9984
RA_OF_ASC_NODE = 252.4904
ARG_OF_PERICENTER = 258.9212
MEAN_ANOMALY   = 11.0275

EPHEMERIS_TYPE = 0
CLASSIFICATION_TYPE = U
NORAD_CAT_ID   = 67163
ELEMENT_SET_NO = 999
REV_AT_EPOCH   = 566
BSTAR          = .27410887E-3
MEAN_MOTION_DOT = .11164E-3
MEAN_MOTION_DDOT = 0

CCSDS_OMM_VERS = 2.0
CREATION_DATE  = 
ORIGINATOR     = 

OBJECT_NAME    = STARLINK-36201
OBJECT_ID      = 2025-303B
CENTER_NAME    = EARTH
REF_FRAME      = TEME
TIME_SYSTEM    = UTC
MEAN_ELEMENT_THEORY = SGP/SGP4

EPOCH          = 2026-01-15T22:00:01.999584
MEAN_MOTION    = 15.40684967
ECCENTRICITY   = .00012671
INCLINATION    = 42.9984
RA_OF_ASC_NODE = 252.4585
ARG_OF_PERICENTER = 278.8078
MEAN_ANOMALY   = 3.6968

EPHEMERIS_TYPE = 0
CLASSIFICATION_TYPE = U
NORAD_CAT_ID   = 67164
ELEMENT_SET_NO = 999
REV_AT_EPOCH   = 596
BSTAR          = .27180049E-3
MEAN_MOTION_DOT = .11061E-3
MEAN_MOTION_DDOT = 0

CCSDS_OMM_VERS = 2.0
CREATION_DATE  = 
ORIGINATOR     = 

OBJECT_NAME    = STARLINK-36186
OBJECT_ID      = 2025-303C
CENTER_NAME    = EARTH
REF_FRAME      = TEME
TIME_SYSTEM    = UTC
MEAN_ELEMENT_THEORY = SGP/SGP4

EPOCH          = 2026-01-15T22:00:01.999584
MEAN_MOTION    = 15.40690845
ECCENTRICITY   = .00010512
INCLINATION    = 42.9984
RA_OF_ASC_NODE = 252.3675
ARG_OF_PERICENTER = 269.4966
MEAN_ANOMALY   = 50.3148

EPHEMERIS_TYPE = 0
CLASSIFICATION_TYPE = U
NORAD_CAT_ID   = 67165
ELEMENT_SET_NO = 999
REV_AT_EPOCH   = 596
BSTAR          = .15290721E-3
MEAN_MOTION_DOT = .6087E-4
MEAN_MOTION_DDOT = 0

CCSDS_OMM_VERS = 2.0
CREATION_DATE  = 
ORIGINATOR     = 

OBJECT_NAME    = STARLINK-36174
OBJECT_ID      = 2025-303D
CENTER_NAME    = EARTH
REF_FRAME      = TEME
TIME_SYSTEM    = UTC
MEAN_ELEMENT_THEORY = SGP/SGP4

EPOCH          = 2026-01-15T22:00:01.999584
MEAN_MOTION    = 15.40685456
ECCENTRICITY   = .00013569
INCLINATION    = 42.9985
RA_OF_ASC_NODE = 252.4292
ARG_OF_PERICENTER = 264.0264
MEAN_ANOMALY   = 30.9189

EPHEMERIS_TYPE = 0
CLASSIFICATION_TYPE = U
NORAD_CAT_ID   = 67166
ELEMENT_SET_NO = 999
REV_AT_EPOCH   = 579
BSTAR          = .16831176E-3
MEAN_MOTION_DOT = .673E-4
MEAN_MOTION_DDOT = 0

CCSDS_OMM_VERS = 2.0
CREATION_DATE  = 
ORIGINATOR     = 

OBJECT_NAME    = STARLINK-36198
OBJECT_ID      = 2025-303E
CENTER_NAME    = EARTH
REF_FRAME      = TEME
TIME_SYSTEM    = UTC
MEAN_ELEMENT_THEORY = SGP/SGP4

EPOCH          = 2026-01-15T22:00:01.999584
MEAN_MOTION    = 15.40682898
ECCENTRICITY   = .00014183
INCLINATION    = 42.9985
RA_OF_ASC_NODE = 252.3378
ARG_OF_PERICENTER = 268.6557
MEAN_ANOMALY   = 63.6129

EPHEMERIS_TYPE = 0
CLASSIFICATION_TYPE = U
NORAD_CAT_ID   = 67167
ELEMENT_SET_NO = 999
REV_AT_EPOCH   = 596
BSTAR          = .14960026E-3
MEAN_MOTION_DOT = .5947E-4
MEAN_MOTION_DDOT = 0

CCSDS_OMM_VERS = 2.0
CREATION_DATE  = 
ORIGINATOR     = 

OBJECT_NAME    = STARLINK-35903
OBJECT_ID      = 2025-303F
CENTER_NAME    = EARTH
REF_FRAME      = TEME
TIME_SYSTEM    = UTC
MEAN_ELEMENT_THEORY = SGP/SGP4

EPOCH          = 2026-01-15T22:00:01.999584
MEAN_MOTION    = 15.40687152
ECCENTRICITY   = .00010492
INCLINATION    = 42.9985
RA_OF_ASC_NODE = 252.3980
ARG_OF_PERICENTER = 290.1722
MEAN_ANOMALY   = 17.2119

EPHEMERIS_TYPE = 0
CLASSIFICATION_TYPE = U
NORAD_CAT_ID   = 67168
ELEMENT_SET_NO = 999
REV_AT_EPOCH   = 592
BSTAR          = .2008631E-3
MEAN_MOTION_DOT = .8092E-4
MEAN_MOTION_DDOT = 0

CCSDS_OMM_VERS = 2.0
CREATION_DATE  = 
ORIGINATOR     = 

OBJECT_NAME    = STARLINK-35839
OBJECT_ID      = 2025-303G
CENTER_NAME    = EARTH
REF_FRAME      = TEME
TIME_SYSTEM    = UTC
MEAN_ELEMENT_THEORY = SGP/SGP4

EPOCH          = 2026-01-15T22:00:01.999584
MEAN_MOTION    = 15.40684749
ECCENTRICITY   = .00016932
INCLINATION    = 42.9987
RA_OF_ASC_NODE = 252.2773
ARG_OF_PERICENTER = 268.4363
MEAN_ANOMALY   = 88.7113

EPHEMERIS_TYPE = 0
CLASSIFICATION_TYPE = U
NORAD_CAT_ID   = 67169
ELEMENT_SET_NO = 999
REV_AT_EPOCH   = 566
BSTAR          = .10747018E-3
MEAN_MOTION_DOT = .4186E-4
MEAN_MOTION_DDOT = 0

CCSDS_OMM_VERS = 2.0
CREATION_DATE  = 
ORIGINATOR     = 

OBJECT_NAME    = STARLINK-35863
OBJECT_ID      = 2025-303H
CENTER_NAME    = EARTH
REF_FRAME      = TEME
TIME_SYSTEM    = UTC
MEAN_ELEMENT_THEORY = SGP/SGP4

EPOCH          = 2026-01-15T22:00:01.999584
MEAN_MOTION    = 15.40688866
ECCENTRICITY   = .00017163
INCLINATION    = 42.9989
RA_OF_ASC_NODE = 252.2169
ARG_OF_PERICENTER = 265.4035
MEAN_ANOMALY   = 116.6207

EPHEMERIS_TYPE = 0
CLASSIFICATION_TYPE = U
NORAD_CAT_ID   = 67170
ELEMENT_SET_NO = 999
REV_AT_EPOCH   = 592
BSTAR          = .67877774E-4
MEAN_MOTION_DOT = .2532E-4
MEAN_MOTION_DDOT = 0

CCSDS_OMM_VERS = 2.0
CREATION_DATE  = 
ORIGINATOR     = 

OBJECT_NAME    = STARLINK-35771
OBJECT_ID      = 2025-303J
CENTER_NAME    = EARTH
REF_FRAME      = TEME
TIME_SYSTEM    = UTC
MEAN_ELEMENT_THEORY = SGP/SGP4

EPOCH          = 2026-01-15T22:00:01.999584
MEAN_MOTION    = 15.40686097
ECCENTRICITY   = .00013467
INCLINATION    = 42.9984
RA_OF_ASC_NODE = 252.3076
ARG_OF_PERICENTER = 268.7642
MEAN_ANOMALY   = 75.9403

EPHEMERIS_TYPE = 0
CLASSIFICATION_TYPE = U
NORAD_CAT_ID   = 67171
ELEMENT_SET_NO = 999
REV_AT_EPOCH   = 566
BSTAR          = .13506968E-3
MEAN_MOTION_DOT = .534E-4
MEAN_MOTION_DDOT = 0

