GSAT0233 (GALILEO 33)   
1 67160U 25302A   25352.14605887 -.00000007  00000+0  00000+0 0  9994
2 67160  54.2406 107.2544 0008423 237.6458 122.2317  1.72906186    28
ARIANE 6 R/B            
1 67161U 25302B   26014.31699228 -.00000032  00000+0  00000+0 0  9990
2 67161  54.2437 106.4249 0005217 261.0325  98.9126  1.72972424   506
GSAT0234 (GALILEO 34)   
1 67162U 25302C   25356.18244914  .00000006  00000+0  00000+0 0  9992
2 67162  54.2447 107.1379 0000312 196.8367 159.4994  1.73130437   127
STARLINK-35755          
1 67163U 25303A   26015.91668981  .00011164  00000+0  27411-3 0  9998
2 67163  42.9984 252.4904 0002060 258.9212  11.0275 15.40701183  5667
STARLINK-36201          
1 67164U 25303B   26015.91668981  .00011061  00000+0  27180-3 0  9998
2 67164  42.9984 252.4585 0001267 278.8078   3.6968 15.40684967  5961
STARLINK-36186          
1 67165U 25303C   26015.91668981  .00006087  00000+0  15291-3 0  9991
2 67165  42.9984 252.3675 0001051 269.4966  50.3148 15.40690845  5965
STARLINK-36174          
1 67166U 25303D   26015.91668981  .00006730  00000+0  16831-3 0  9998
2 67166  42.9985 252.4292 0001356 264.0264  30.9189 15.40685456  5795
STARLINK-36198          
1 67167U 25303E   26015.91668981  .00005947  00000+0  14960-3 0  9999
2 67167  42.9985 252.3378 0001418 268.6557  63.6129 15.40682898  5967
STARLINK-35903          
1 67168U 25303F   26015.91668981  .00008092  00000+0  20086-3 0  9990
2 67168  42.9985 252.3980 0001049 290.1722  17.2119 15.40687152  5929
STARLINK-35839          
1 67169U 25303G   26015.91668981  .00004186  00000+0  10747-3 0  9994
2 67169  42.9987 252.2773 0001693 268.4363  88.7113 15.40684749  5662
STARLINK-35863          
1 67170U 25303H   26015.91668981  .00002532  00000+0  67878-4 0  9997
2 67170  42.9989 252.2169 0001716 265.4035 116.6207 15.40688866  5922
STARLINK-35771          
1 67171U 25303J   26015.91668981  .00005340  00000+0  13507-3 0  9997
2 67171  42.9984 252.3076 0001346 268.7642  75.9403 15.40686097  5665
